ORBCOMM FM33            
1 25983U 99065D   24352.48491672  .00002469  00000+0  83673-3 0  9993
2 25983  45.0267 142.2994 0009710 222.2277 137.7825 14.39062741309883
ORBCOMM FM36            
1 25984U 99065E   24352.34926085  .00002335  00000+0  82468-3 0  9993
2 25984  45.0377 232.0743 0003662  98.2563 261.8700 14.37185568308257
ORBCOMM FM35            
1 25985U 99065F   24352.41526740  .00001572  00000+0  58044-3 0  9991
2 25985  45.0391 235.4436 0002765 204.9344 155.1370 14.36334647308640
ORBCOMM FM34            
1 25986U 99065G   24352.38622834  .00001701  00000+0  62387-3 0  9998
2 25986  45.0385 236.1123 0003396 141.1534 218.9559 14.36369503308757
ORBCOMM FM38            
1 33060U 08031A   24352.61862362  .00004755  00000+0  65153-3 0  9997
2 33060  48.4402  99.6648 0005887 326.6423  33.4120 14.79839844887847
ORBCOMM FM41            
1 33061U 08031B   24352.59637552  .00004706  00000+0  65064-3 0  9993
2 33061  48.4434 106.9595 0005238 311.6029 167.4862 14.79472685887333
ORBCOMM FM29            
1 33062U 08031C   24352.58727919  .00004770  00000+0  65863-3 0  9998
2 33062  48.4383 114.9865 0006882 312.7248 157.1982 14.79501377887247
ORBCOMM FM39            
1 33063U 08031D   24352.56455583  .00004078  00000+0  58413-3 0  9996
2 33063  48.4389 137.4854 0007929 289.6248  70.3810 14.78235805886915
